start=new Date('2022-12-14T00:00:00.000Z').valueOf();
sats=[{"OBJECT_TYPE":"PAYLOAD","ELEMENT_SET_NO":"999","CLASSIFICATION_TYPE":"U","MEAN_ANOMALY":"303.1763","MEAN_MOTION":"15.08839706","MEAN_MOTION_DDOT":"0.0000000000000","PERIAPSIS":"538.356","LAUNCH_DATE":"2022-09-05","DECAY_DATE":null,"MEAN_MOTION_DOT":"-0.00000581","REF_FRAME":"TEME","APOAPSIS":"541.136","FILE":"3698003","TLE_LINE2":"2 53736  53.2181 160.0694 0002009  56.9422 303.1763 15.08839706 16154","RCS_SIZE":"LARGE","CENTER_NAME":"EARTH","EPHEMERIS_TYPE":"0","INCLINATION":"53.2181","TLE_LINE1":"1 53736U 22107AN  22347.78620681 -.00000581  00000-0 -18425-4 0  9992","PERIOD":"95.438","RA_OF_ASC_NODE":"160.0694","OBJECT_NAME":"STARLINK-4652","SEMIMAJOR_AXIS":"6917.881","ECCENTRICITY":"0.00020090","EPOCH":"2022-12-13T18:52:08.268384","BSTAR":"-0.00001842500000","MEAN_ELEMENT_THEORY":"SGP4","SITE":"AFETR","GP_ID":"220323728","NORAD_CAT_ID":"53736","OBJECT_ID":"2022-107AN","TIME_SYSTEM":"UTC","ARG_OF_PERICENTER":"56.9422","COUNTRY_CODE":"US","REV_AT_EPOCH":"1615"},{"MEAN_MOTION":"15.08848750","MEAN_MOTION_DDOT":"0.0000000000000","PERIAPSIS":"538.882","ELEMENT_SET_NO":"999","OBJECT_TYPE":"PAYLOAD","MEAN_ANOMALY":"286.7932","CLASSIFICATION_TYPE":"U","LAUNCH_DATE":"2022-09-05","APOAPSIS":"540.555","FILE":"3698003","MEAN_MOTION_DOT":"-0.00000039","REF_FRAME":"TEME","DECAY_DATE":null,"EPHEMERIS_TYPE":"0","RCS_SIZE":"LARGE","CENTER_NAME":"EARTH","INCLINATION":"53.2178","TLE_LINE2":"2 53737  53.2178 169.2733 0001209  73.3192 286.7932 15.08848750 16180","TLE_LINE1":"1 53737U 22107AP  22347.88829097 -.00000039  00000-0  15654-4 0  9994","RA_OF_ASC_NODE":"169.2733","PERIOD":"95.437","ECCENTRICITY":"0.00012090","EPOCH":"2022-12-13T21:19:08.339808","OBJECT_NAME":"STARLINK-4646","SEMIMAJOR_AXIS":"6917.854","BSTAR":"0.00001565400000","MEAN_ELEMENT_THEORY":"SGP4","TIME_SYSTEM":"UTC","ARG_OF_PERICENTER":"73.3192","OBJECT_ID":"2022-107AP","REV_AT_EPOCH":"1618","COUNTRY_CODE":"US","SITE":"AFETR","GP_ID":"220323471","NORAD_CAT_ID":"53737"},{"BSTAR":"0.00001733100000","MEAN_ELEMENT_THEORY":"SGP4","SITE":"AFETR","GP_ID":"220322227","NORAD_CAT_ID":"53738","OBJECT_ID":"2022-107AQ","TIME_SYSTEM":"UTC","ARG_OF_PERICENTER":"59.9634","COUNTRY_CODE":"US","REV_AT_EPOCH":"1603","TLE_LINE1":"1 53738U 22107AQ  22347.88091223 -.00000012  00000-0  17331-4 0  9992","RA_OF_ASC_NODE":"169.2259","PERIOD":"95.437","OBJECT_NAME":"STARLINK-4662","SEMIMAJOR_AXIS":"6917.862","ECCENTRICITY":"0.00015170","EPOCH":"2022-12-13T21:08:30.816672","DECAY_DATE":null,"REF_FRAME":"TEME","MEAN_MOTION_DOT":"-0.00000012","APOAPSIS":"540.776","FILE":"3698003","TLE_LINE2":"2 53738  53.2163 169.2259 0001517  59.9634 300.1509 15.08846118 16032","RCS_SIZE":"LARGE","CENTER_NAME":"EARTH","EPHEMERIS_TYPE":"0","INCLINATION":"53.2163","OBJECT_TYPE":"PAYLOAD","ELEMENT_SET_NO":"999","CLASSIFICATION_TYPE":"U","MEAN_ANOMALY":"300.1509","MEAN_MOTION_DDOT":"0.0000000000000","MEAN_MOTION":"15.08846118","PERIAPSIS":"538.677","LAUNCH_DATE":"2022-09-05"},{"ECCENTRICITY":"0.00012880","EPOCH":"2022-12-13T11:52:10.003872","OBJECT_NAME":"STARLINK-4607","SEMIMAJOR_AXIS":"6917.908","TLE_LINE1":"1 53740U 22107AS  22347.49456023  .00000407  00000-0  43681-4 0  9999","PERIOD":"95.438","RA_OF_ASC_NODE":"171.0792","OBJECT_ID":"2022-107AS","TIME_SYSTEM":"UTC","ARG_OF_PERICENTER":"88.5751","COUNTRY_CODE":"US","REV_AT_EPOCH":"1612","SITE":"AFETR","NORAD_CAT_ID":"53740","GP_ID":"220280176","BSTAR":"0.00004368100000","MEAN_ELEMENT_THEORY":"SGP4","LAUNCH_DATE":"2022-09-05","MEAN_MOTION_DDOT":"0.0000000000000","MEAN_MOTION":"15.08830985","PERIAPSIS":"538.882","OBJECT_TYPE":"PAYLOAD","ELEMENT_SET_NO":"999","CLASSIFICATION_TYPE":"U","MEAN_ANOMALY":"271.5389","CENTER_NAME":"EARTH","RCS_SIZE":"LARGE","EPHEMERIS_TYPE":"0","INCLINATION":"53.2182","TLE_LINE2":"2 53740  53.2182 171.0792 0001288  88.5751 271.5389 15.08830985 16124","APOAPSIS":"540.664","FILE":"3697190","DECAY_DATE":null,"MEAN_MOTION_DOT":"0.00000407","REF_FRAME":"TEME"},{"FILE":"3698003","APOAPSIS":"541.024","DECAY_DATE":null,"REF_FRAME":"TEME","MEAN_MOTION_DOT":"0.00000948","INCLINATION":"53.2176","CENTER_NAME":"EARTH","RCS_SIZE":"LARGE","EPHEMERIS_TYPE":"0","TLE_LINE2":"2 53741  53.2176 154.2727 0002007  47.8425 312.2738 15.08876074 16394","PERIAPSIS":"538.247","MEAN_MOTION":"15.08876074","MEAN_MOTION_DDOT":"0.0000000000000","MEAN_ANOMALY":"312.2738","CLASSIFICATION_TYPE":"U","OBJECT_TYPE":"PAYLOAD","ELEMENT_SET_NO":"999","LAUNCH_DATE":"2022-09-05","MEAN_ELEMENT_THEORY":"SGP4","BSTAR":"0.00007761500000","COUNTRY_CODE":"US","REV_AT_EPOCH":"1639","OBJECT_ID":"2022-107AT","ARG_OF_PERICENTER":"47.8425","TIME_SYSTEM":"UTC","NORAD_CAT_ID":"53741","GP_ID":"220323228","SITE":"AFETR","RA_OF_ASC_NODE":"154.2727","PERIOD":"95.435","TLE_LINE1":"1 53741U 22107AT  22347.87034042  .00000948  00000-0  77615-4 0  9999","EPOCH":"2022-12-13T20:53:17.412288","ECCENTRICITY":"0.00020070","SEMIMAJOR_AXIS":"6917.770","OBJECT_NAME":"STARLINK-4614"},{"PERIOD":"95.437","RA_OF_ASC_NODE":"169.3177","TLE_LINE1":"1 53742U 22107AU  22347.89565012  .00001320  00000-0  10100-3 0  9998","SEMIMAJOR_AXIS":"6917.842","OBJECT_NAME":"STARLINK-4637","EPOCH":"2022-12-13T21:29:44.170368","ECCENTRICITY":"0.00015560","MEAN_ELEMENT_THEORY":"SGP4","BSTAR":"0.00010100000000","NORAD_CAT_ID":"53742","GP_ID":"220323972","SITE":"AFETR","COUNTRY_CODE":"US","REV_AT_EPOCH":"1618","OBJECT_ID":"2022-107AU","ARG_OF_PERICENTER":"72.1880","TIME_SYSTEM":"UTC","MEAN_ANOMALY":"287.9282","CLASSIFICATION_TYPE":"U","ELEMENT_SET_NO":"999","OBJECT_TYPE":"PAYLOAD","PERIAPSIS":"538.631","MEAN_MOTION":"15.08852444","MEAN_MOTION_DDOT":"0.0000000000000","LAUNCH_DATE":"2022-09-05","DECAY_DATE":null,"MEAN_MOTION_DOT":"0.00001320","REF_FRAME":"TEME","FILE":"3698003","APOAPSIS":"540.784","TLE_LINE2":"2 53742  53.2168 169.3177 0001556  72.1880 287.9282 15.08852444 16180","INCLINATION":"53.2168","CENTER_NAME":"EARTH","RCS_SIZE":"LARGE","EPHEMERIS_TYPE":"0"},{"TLE_LINE2":"2 53743  53.2179 170.0038 0001922  54.0778 306.0392 15.08851516 16162","INCLINATION":"53.2179","EPHEMERIS_TYPE":"0","CENTER_NAME":"EARTH","RCS_SIZE":"LARGE","MEAN_MOTION_DOT":"0.00001763","REF_FRAME":"TEME","DECAY_DATE":null,"FILE":"3698003","APOAPSIS":"541.040","LAUNCH_DATE":"2022-09-05","CLASSIFICATION_TYPE":"U","MEAN_ANOMALY":"306.0392","OBJECT_TYPE":"PAYLOAD","ELEMENT_SET_NO":"999","PERIAPSIS":"538.381","MEAN_MOTION":"15.08851516","MEAN_MOTION_DDOT":"0.0000000000000","GP_ID":"220322727","NORAD_CAT_ID":"53743","SITE":"AFETR","REV_AT_EPOCH":"1616","COUNTRY_CODE":"US","ARG_OF_PERICENTER":"54.0778","TIME_SYSTEM":"UTC","OBJECT_ID":"2022-107AV","MEAN_ELEMENT_THEORY":"SGP4","BSTAR":"0.00012878000000","SEMIMAJOR_AXIS":"6917.845","OBJECT_NAME":"STARLINK-4645","EPOCH":"2022-12-13T18:40:11.349696","ECCENTRICITY":"0.00019220","RA_OF_ASC_NODE":"170.0038","PERIOD":"95.437","TLE_LINE1":"1 53743U 22107AV  22347.77790914  .00001763  00000-0  12878-3 0  9992"},{"ECCENTRICITY":"0.00016520","EPOCH":"2022-12-13T18:24:16.611552","OBJECT_NAME":"STARLINK-4670","SEMIMAJOR_AXIS":"6917.881","TLE_LINE1":"1 53744U 22107AW  22347.76685893 -.00000395  00000-0 -67083-5 0  9993","PERIOD":"95.438","RA_OF_ASC_NODE":"169.9367","TIME_SYSTEM":"UTC","ARG_OF_PERICENTER":"61.2954","OBJECT_ID":"2022-107AW","REV_AT_EPOCH":"1616","COUNTRY_CODE":"US","SITE":"AFETR","NORAD_CAT_ID":"53744","GP_ID":"220322478","BSTAR":"-0.00000670830000","MEAN_ELEMENT_THEORY":"SGP4","LAUNCH_DATE":"2022-09-05","MEAN_MOTION_DDOT":"0.0000000000000","MEAN_MOTION":"15.08839934","PERIAPSIS":"538.603","ELEMENT_SET_NO":"999","OBJECT_TYPE":"PAYLOAD","MEAN_ANOMALY":"298.8204","CLASSIFICATION_TYPE":"U","EPHEMERIS_TYPE":"0","RCS_SIZE":"LARGE","CENTER_NAME":"EARTH","INCLINATION":"53.2169","TLE_LINE2":"2 53744  53.2169 169.9367 0001652  61.2954 298.8204 15.08839934 16160","APOAPSIS":"540.888","FILE":"3698003","MEAN_MOTION_DOT":"-0.00000395","REF_FRAME":"TEME","DECAY_DATE":null},{"TLE_LINE1":"1 53745U 22107AX  22347.71535708 -.00000338  00000-0 -31118-5 0  9995","RA_OF_ASC_NODE":"170.3263","PERIOD":"95.438","OBJECT_NAME":"STARLINK-4656","SEMIMAJOR_AXIS":"6917.887","ECCENTRICITY":"0.00016530","EPOCH":"2022-12-13T17:10:06.851712","BSTAR":"-0.00000311180000","MEAN_ELEMENT_THEORY":"SGP4","SITE":"AFETR","GP_ID":"220323729","NORAD_CAT_ID":"53745","ARG_OF_PERICENTER":"58.4419","TIME_SYSTEM":"UTC","OBJECT_ID":"2022-107AX","REV_AT_EPOCH":"1615","COUNTRY_CODE":"US","OBJECT_TYPE":"PAYLOAD","ELEMENT_SET_NO":"999","CLASSIFICATION_TYPE":"U","MEAN_ANOMALY":"301.6734","MEAN_MOTION_DDOT":"0.0000000000000","MEAN_MOTION":"15.08837752","PERIAPSIS":"538.609","LAUNCH_DATE":"2022-09-05","REF_FRAME":"TEME","MEAN_MOTION_DOT":"-0.00000338","DECAY_DATE":null,"APOAPSIS":"540.896","FILE":"3698003","TLE_LINE2":"2 53745  53.2170 170.3263 0001653  58.4419 301.6734 15.08837752 16155","EPHEMERIS_TYPE":"0","CENTER_NAME":"EARTH","RCS_SIZE":"LARGE","INCLINATION":"53.2170"},{"TLE_LINE2":"2 53746  53.2165 169.9812 0002159  50.1209 309.9972 15.08839929 16166","INCLINATION":"53.2165","RCS_SIZE":"LARGE","CENTER_NAME":"EARTH","EPHEMERIS_TYPE":"0","DECAY_DATE":null,"MEAN_MOTION_DOT":"0.00001555","REF_FRAME":"TEME","FILE":"3698003","APOAPSIS":"541.239","LAUNCH_DATE":"2022-09-05","CLASSIFICATION_TYPE":"U","MEAN_ANOMALY":"309.9972","ELEMENT_SET_NO":"999","OBJECT_TYPE":"PAYLOAD","PERIAPSIS":"538.252","MEAN_MOTION":"15.08839929","MEAN_MOTION_DDOT":"0.0000000000000","NORAD_CAT_ID":"53746","GP_ID":"220323472","SITE":"AFETR","COUNTRY_CODE":"US","REV_AT_EPOCH":"1616","OBJECT_ID":"2022-107AY","TIME_SYSTEM":"UTC","ARG_OF_PERICENTER":"50.1209","MEAN_ELEMENT_THEORY":"SGP4","BSTAR":"0.00011579000000","SEMIMAJOR_AXIS":"6917.881","OBJECT_NAME":"STARLINK-4589","EPOCH":"2022-12-13T18:34:55.386624","ECCENTRICITY":"0.00021590","RA_OF_ASC_NODE":"169.9812","PERIOD":"95.438","TLE_LINE1":"1 53746U 22107AY  22347.77425216  .00001555  00000-0  11579-3 0  9991"}];
